[{"OBJECT_NAME":"STARLINK-30753","OBJECT_ID":"2023-167A","EPOCH":"2026-03-08T13:36:27.249984","MEAN_MOTION":15.26749256,"ECCENTRICITY":0.00011376,"INCLINATION":43.0013,"RA_OF_ASC_NODE":149.7305,"ARG_OF_PERICENTER":276.4768,"MEAN_ANOMALY":83.5954,"EPHEMERIS_TYPE":0,"CLASSIFICATION_TYPE":"U","NORAD_CAT_ID":58175,"ELEMENT_SET_NO":999,"REV_AT_EPOCH":13081,"BSTAR":5.8450662e-5,"MEAN_MOTION_DOT":1.309e-5,"MEAN_MOTION_DDOT":0},{"OBJECT_NAME":"OBJECT L","OBJECT_ID":"2024-024L","EPOCH":"2026-03-09T22:36:05.522976","MEAN_MOTION":15.29373491,"ECCENTRICITY":0.00073185,"INCLINATION":97.3169,"RA_OF_ASC_NODE":137.7038,"ARG_OF_PERICENTER":167.6369,"MEAN_ANOMALY":192.5052,"EPHEMERIS_TYPE":0,"CLASSIFICATION_TYPE":"U","NORAD_CAT_ID":58927,"ELEMENT_SET_NO":999,"REV_AT_EPOCH":9318,"BSTAR":0.00043092344,"MEAN_MOTION_DOT":0.00012217,"MEAN_MOTION_DDOT":0}]
